{"type": "FeatureCollection", "features": [ {"type": "Feature", "properties": {"norad_id": 66907, "name": "1998-067XT", "group": "last-30-days", "lat": 28.185312902278916, "lon": 138.10184566228574, "alt_km": 408.85795862033956, "timestamp": "2025-12-18T15:47:09.961521+00:00", "meta": {"OBJECT_NAME": "1998-067XT", "OBJECT_ID": "1998-067XT", "EPOCH": "2025-12-17T19:32:19.947264", "MEAN_MOTION": 15.52074588, "ECCENTRICITY": 0.00039845, "INCLINATION": 51.6304, "RA_OF_ASC_NODE": 117.1744, "ARG_OF_PERICENTER": 257.0045, "MEAN_ANOMALY": 103.05, "EPHEMERIS_TYPE": 0, "CLASSIFICATION_TYPE": "U", "NORAD_CAT_ID": 66907, "ELEMENT_SET_NO": 999, "REV_AT_EPOCH": 240, "BSTAR": 0.00089323104, "MEAN_MOTION_DOT": 0.00054815, "MEAN_MOTION_DDOT": 0}, "tle": {"line1": "1 66907U 98067XT  25351.81411976  .00054815  00000+0  89323-3 0  9991", "line2": "2 66907  51.6304 117.1744 0003984 257.0045 103.0500 15.52074588  2401"}}, "geometry": {"type": "Point", "coordinates": [138.10184566228574, 28.185312902278916]}}, {"type": "Feature", "properties": {"norad_id": 66908, "name": "1998-067XU", "group": "last-30-days", "lat": 30.84631927253819, "lon": 141.21079188572796, "alt_km": 408.36704527060283, "timestamp": "2025-12-18T15:47:09.961534+00:00", "meta": {"OBJECT_NAME": "1998-067XU", "OBJECT_ID": "1998-067XU", "EPOCH": "2025-12-17T14:53:17.519424", "MEAN_MOTION": 15.52149323, "ECCENTRICITY": 0.00041086, "INCLINATION": 51.6303, "RA_OF_ASC_NODE": 118.1303, "ARG_OF_PERICENTER": 254.9738, "MEAN_ANOMALY": 105.0797, "EPHEMERIS_TYPE": 0, "CLASSIFICATION_TYPE": "U", "NORAD_CAT_ID": 66908, "ELEMENT_SET_NO": 999, "REV_AT_EPOCH": 237, "BSTAR": 0.00089135269, "MEAN_MOTION_DOT": 0.00054848, "MEAN_MOTION_DDOT": 0}, "tle": {"line1": "1 66908U 98067XU  25351.62034166  .00054848  00000+0  89135-3 0  9990", "line2": "2 66908  51.6303 118.1303 0004108 254.9738 105.0797 15.52149323  2373"}}, "geometry": {"type": "Point", "coordinates": [141.21079188572796, 30.84631927253819]}}, {"type": "Feature", "properties": {"norad_id": 66909, "name": "SILVERSAT", "group": "last-30-days", "lat": 34.029068934391304, "lon": 145.30342501929243, "alt_km": 407.4306330433037, "timestamp": "2025-12-18T15:47:09.961544+00:00", "meta": {"OBJECT_NAME": "SILVERSAT", "OBJECT_ID": "1998-067XV", "EPOCH": "2025-12-17T14:52:13.125504", "MEAN_MOTION": 15.52286885, "ECCENTRICITY": 0.00039934, "INCLINATION": 51.6308, "RA_OF_ASC_NODE": 118.1251, "ARG_OF_PERICENTER": 257.3923, "MEAN_ANOMALY": 102.662, "EPHEMERIS_TYPE": 0, "CLASSIFICATION_TYPE": "U", "NORAD_CAT_ID": 66909, "ELEMENT_SET_NO": 999, "REV_AT_EPOCH": 237, "BSTAR": 0.00095195038, "MEAN_MOTION_DOT": 0.00058931, "MEAN_MOTION_DDOT": 0}, "tle": {"line1": "1 66909U 98067XV  25351.61959636  .00058931  00000+0  95195-3 0  9998", "line2": "2 66909  51.6308 118.1251 0003993 257.3923 102.6620 15.52286885  2378"}}, "geometry": {"type": "Point", "coordinates": [145.30342501929243, 34.029068934391304]}}, {"type": "Feature", "properties": {"norad_id": 66910, "name": "1998-067XW", "group": "last-30-days", "lat": 40.22490762159847, "lon": 155.01753447801607, "alt_km": 407.2446182041649, "timestamp": "2025-12-18T15:47:09.961554+00:00", "meta": {"OBJECT_NAME": "1998-067XW", "OBJECT_ID": "1998-067XW", "EPOCH": "2025-12-17T14:49:41.645568", "MEAN_MOTION": 15.52327753, "ECCENTRICITY": 0.00045296, "INCLINATION": 51.6302, "RA_OF_ASC_NODE": 118.1137, "ARG_OF_PERICENTER": 233.5237, "MEAN_ANOMALY": 126.5336, "EPHEMERIS_TYPE": 0, "CLASSIFICATION_TYPE": "U", "NORAD_CAT_ID": 66910, "ELEMENT_SET_NO": 999, "REV_AT_EPOCH": 237, "BSTAR": 0.00083127757, "MEAN_MOTION_DOT": 0.00051432, "MEAN_MOTION_DDOT": 0}, "tle": {"line1": "1 66910U 98067XW  25351.61784312  .00051432  00000+0  83128-3 0  9999", "line2": "2 66910  51.6302 118.1137 0004529 233.5237 126.5336 15.52327753  2376"}}, "geometry": {"type": "Point", "coordinates": [155.01753447801607, 40.22490762159847]}}, {"type": "Feature", "properties": {"norad_id": 66911, "name": "1998-067XX", "group": "last-30-days", "lat": 45.958121684566066, "lon": 167.92656399487993, "alt_km": 405.0018040323239, "timestamp": "2025-12-18T15:47:09.961563+00:00", "meta": {"OBJECT_NAME": "1998-067XX", "OBJECT_ID": "1998-067XX", "EPOCH": "2025-12-17T14:47:13.814304", "MEAN_MOTION": 15.52703134, "ECCENTRICITY": 0.00042191, "INCLINATION": 51.6305, "RA_OF_ASC_NODE": 118.1027, "ARG_OF_PERICENTER": 237.6725, "MEAN_ANOMALY": 122.3857, "EPHEMERIS_TYPE": 0, "CLASSIFICATION_TYPE": "U", "NORAD_CAT_ID": 66911, "ELEMENT_SET_NO": 999, "REV_AT_EPOCH": 236, "BSTAR": 0.00097424314, "MEAN_MOTION_DOT": 0.00061259, "MEAN_MOTION_DDOT": 0}, "tle": {"line1": "1 66911U 98067XX  25351.61613211  .00061259  00000+0  97424-3 0  9991", "line2": "2 66911  51.6305 118.1027 0004219 237.6725 122.3857 15.52703134  2363"}}, "geometry": {"type": "Point", "coordinates": [167.92656399487993, 45.958121684566066]}}, {"type": "Feature", "properties": {"norad_id": 66912, "name": "1998-067XY", "group": "last-30-days", "lat": 18.03742632290388, "lon": 127.95865001142177, "alt_km": 411.6568849530995, "timestamp": "2025-12-18T15:47:09.961577+00:00", "meta": {"OBJECT_NAME": "1998-067XY", "OBJECT_ID": "1998-067XY", "EPOCH": "2025-12-17T14:57:17.442720", "MEAN_MOTION": 15.51610656, "ECCENTRICITY": 0.0004152, "INCLINATION": 51.6301, "RA_OF_ASC_NODE": 118.1487, "ARG_OF_PERICENTER": 250.0151, "MEAN_ANOMALY": 110.0391, "EPHEMERIS_TYPE": 0, "CLASSIFICATION_TYPE": "U", "NORAD_CAT_ID": 66912, "ELEMENT_SET_NO": 999, "REV_AT_EPOCH": 236, "BSTAR": 0.00073169198, "MEAN_MOTION_DOT": 0.00044013, "MEAN_MOTION_DDOT": 0}, "tle": {"line1": "1 66912U 98067XY  25351.62311855  .00044013  00000+0  73169-3 0  9991", "line2": "2 66912  51.6301 118.1487 0004152 250.0151 110.0391 15.51610656  2360"}}, "geometry": {"type": "Point", "coordinates": [127.95865001142177, 18.03742632290388]}}, {"type": "Feature", "properties": {"norad_id": 66913, "name": "2025-284A", "group": "last-30-days", "lat": -27.536016411084944, "lon": 117.21828724161624, "alt_km": 536.3397126355248, "timestamp": "2025-12-18T15:47:09.961588+00:00", "meta": {"OBJECT_NAME": "2025-284A", "OBJECT_ID": "2025-284A", "EPOCH": "2025-12-18T06:24:29.359008", "MEAN_MOTION": 15.16462178, "ECCENTRICITY": 0.00203688, "INCLINATION": 80.4052, "RA_OF_ASC_NODE": 122.7714, "ARG_OF_PERICENTER": 156.4299, "MEAN_ANOMALY": 203.7866, "EPHEMERIS_TYPE": 0, "CLASSIFICATION_TYPE": "U", "NORAD_CAT_ID": 66913, "ELEMENT_SET_NO": 999, "REV_AT_EPOCH": 196, "BSTAR": 0.00046237905, "MEAN_MOTION_DOT": 9.066e-05, "MEAN_MOTION_DDOT": 0}, "tle": {"line1": "1 66913U 25284A   25352.26700647  .00009066  00000+0  46238-3 0  9991", "line2": "2 66913  80.4052 122.7714 0020368 156.4299 203.7866 15.16462178  1964"}}, "geometry": {"type": "Point", "coordinates": [117.21828724161624, -27.536016411084944]}}, {"type": "Feature", "properties": {"norad_id": 66914, "name": "2025-284B", "group": "last-30-days", "lat": 4.359515847999844, "lon": 123.00337994104187, "alt_km": 515.3607989816892, "timestamp": "2025-12-18T15:47:09.961598+00:00", "meta": {"OBJECT_NAME": "2025-284B", "OBJECT_ID": "2025-284B", "EPOCH": "2025-12-16T06:51:11.417184", "MEAN_MOTION": 15.18985981, "ECCENTRICITY": 0.00081793, "INCLINATION": 80.4045, "RA_OF_ASC_NODE": 125.2713, "ARG_OF_PERICENTER": 234.9626, "MEAN_ANOMALY": 125.0834, "EPHEMERIS_TYPE": 0, "CLASSIFICATION_TYPE": "U", "NORAD_CAT_ID": 66914, "ELEMENT_SET_NO": 999, "REV_AT_EPOCH": 166, "BSTAR": 0.00038444995, "MEAN_MOTION_DOT": 8.068e-05, "MEAN_MOTION_DDOT": 0}, "tle": {"line1": "1 66914U 25284B   25350.28554881  .00008068  00000+0  38445-3 0  9991", "line2": "2 66914  80.4045 125.2713 0008179 234.9626 125.0834 15.18985981  1668"}}, "geometry": {"type": "Point", "coordinates": [123.00337994104187, 4.359515847999844]}}, {"type": "Feature", "properties": {"norad_id": 66915, "name": "HULIANWANG DIGUI-105", "group": "last-30-days", "lat": -37.984226309128, "lon": -45.870635178971554, "alt_km": 882.8476143207708, "timestamp": "2025-12-18T15:47:09.961609+00:00", "meta": {"OBJECT_NAME": "HULIANWANG DIGUI-105", "OBJECT_ID": "2025-285A", "EPOCH": "2025-12-18T07:50:36.663936", "MEAN_MOTION": 14.03717261, "ECCENTRICITY": 0.0008013, "INCLINATION": 50.0058, "RA_OF_ASC_NODE": 94.5213, "ARG_OF_PERICENTER": 301.3345, "MEAN_ANOMALY": 58.6775, "EPHEMERIS_TYPE": 0, "CLASSIFICATION_TYPE": "U", "NORAD_CAT_ID": 66915, "ELEMENT_SET_NO": 999, "REV_AT_EPOCH": 169, "BSTAR": 8.5133539e-05, "MEAN_MOTION_DOT": -1.7e-07, "MEAN_MOTION_DDOT": 0}, "tle": {"line1": "1 66915U 25285A   25352.32681324 -.00000017  00000+0  85134-4 0  9998", "line2": "2 66915  50.0058  94.5213 0008013 301.3345  58.6775 14.03717261  1698"}}, "geometry": {"type": "Point", "coordinates": [-45.870635178971554, -37.984226309128]}}, {"type": "Feature", "properties": {"norad_id": 66916, "name": "HULIANWANG DIGUI-106", "group": "last-30-days", "lat": -45.34955795608225, "lon": -28.666922304234976, "alt_km": 881.9903805648055, "timestamp": "2025-12-18T15:47:09.961620+00:00", "meta": {"OBJECT_NAME": "HULIANWANG DIGUI-106", "OBJECT_ID": "2025-285B", "EPOCH": "2025-12-18T07:46:23.983680", "MEAN_MOTION": 14.03701688, "ECCENTRICITY": 0.00067904, "INCLINATION": 50.0057, "RA_OF_ASC_NODE": 94.5072, "ARG_OF_PERICENTER": 294.6401, "MEAN_ANOMALY": 65.3796, "EPHEMERIS_TYPE": 0, "CLASSIFICATION_TYPE": "U", "NORAD_CAT_ID": 66916, "ELEMENT_SET_NO": 999, "REV_AT_EPOCH": 169, "BSTAR": -2.0162109e-05, "MEAN_MOTION_DOT": -1.83e-06, "MEAN_MOTION_DDOT": 0}, "tle": {"line1": "1 66916U 25285B   25352.32388870 -.00000183  00000+0 -20162-4 0  9994", "line2": "2 66916  50.0057  94.5072 0006790 294.6401  65.3796 14.03701688  1692"}}, "geometry": {"type": "Point", "coordinates": [-28.666922304234976, -45.34955795608225]}}]}